COMMENT,ORIGINATOR,NORAD_CAT_ID,OBJECT_NAME,OBJECT_TYPE,CLASSIFICATION_TYPE,INTLDES,EPOCH,EPOCH_MICROSECONDS,MEAN_MOTION,ECCENTRICITY,INCLINATION,RA_OF_ASC_NODE,ARG_OF_PERICENTER,MEAN_ANOMALY,EPHEMERIS_TYPE,ELEMENT_SET_NO,REV_AT_EPOCH,BSTAR,MEAN_MOTION_DOT,MEAN_MOTION_DDOT,FILE,TLE_LINE0,TLE_LINE1,TLE_LINE2,OBJECT_ID,OBJECT_NUMBER,SEMIMAJOR_AXIS,PERIOD,APOGEE,PERIGEE,DECAYED,date
GENERATED VIA SPACETRACK.ORG API,18 SPCS,52180,SPACEBEE-134,PAYLOAD,U,22033Z,2023/1/25 4:39,326880,15.30535946,0.0007785,97.3622,108.3954,320.7869,39.2807,0,999,4546,0.0013894,0.00041156,0,3760735,0 SPACEBEE-134,1 52180U 22033Z   23025.19417045  .00041156  00000-0  13894-2 0  9993,2 52180  97.3622 108.3954 0007785 320.7869  39.2807 15.30535946 45468,2022-033Z,52180,6852.349,94.085,479.549,468.88,1,2023/2/16
GENERATED VIA SPACETRACK.ORG API,18 SPCS,52180,SPACEBEE-134,PAYLOAD,U,22033Z,2023/1/25 4:39,326880,15.30535946,0.0007785,97.3622,108.3954,320.7869,39.2807,0,999,4548,0.0013894,0.00041156,0,3761297,0 SPACEBEE-134,1 52180U 22033Z   23025.19417045  .00041156  00000-0  13894-2 0  9993,2 52180  97.3622 108.3954 0007785 320.7869  39.2807 15.30535946 45480,2022-033Z,52180,6852.349,94.085,479.549,468.88,1,2023/2/17
GENERATED VIA SPACETRACK.ORG API,18 SPCS,52180,SPACEBEE-134,PAYLOAD,U,22033Z,2023/1/25 17:12,622944,15.30572009,0.0007756,97.3622,108.9138,318.7052,41.3602,0,999,4556,0.001248,0.00036981,0,3761360,0 SPACEBEE-134,1 52180U 22033Z   23025.71719471  .00036981  00000-0  12480-2 0  9999,2 52180  97.3622 108.9138 0007756 318.7052  41.3602 15.30572009 45566,2022-033Z,52180,6852.242,94.082,479.421,468.792,1,2023/2/18
GENERATED VIA SPACETRACK.ORG API,18 SPCS,52180,SPACEBEE-134,PAYLOAD,U,22033Z,2023/1/26 4:11,288672,15.30607914,0.000774,97.3617,109.3679,317.0973,42.9664,0,999,4563,0.0013031,0.00038668,0,3761951,0 SPACEBEE-134,1 52180U 22033Z   23026.17482973  .00038668  00000-0  13031-2 0  9991,2 52180  97.3617 109.3679 0007740 317.0973  42.9664 15.30607914 45639,2022-033Z,52180,6852.134,94.08,479.303,468.696,1,2023/2/19
GENERATED VIA SPACETRACK.ORG API,18 SPCS,52180,SPACEBEE-134,PAYLOAD,U,22033Z,2023/1/26 4:11,288672,15.30607914,0.000774,97.3617,109.3679,317.0973,42.9664,0,999,4561,0.0013031,0.00038668,0,3762056,0 SPACEBEE-134,1 52180U 22033Z   23026.17482973  .00038668  00000-0  13031-2 0  9991,2 52180  97.3617 109.3679 0007740 317.0973  42.9664 15.30607914 45617,2022-033Z,52180,6852.134,94.08,479.303,468.696,1,2023/2/20
GENERATED VIA SPACETRACK.ORG API,18 SPCS,52180,SPACEBEE-134,PAYLOAD,U,22033Z,2023/1/27 3:43,93760,15.30681007,0.0007622,97.3615,110.3404,313.4503,46.6104,0,999,4578,0.0011936,0.00035477,0,3762956,0 SPACEBEE-134,1 52180U 22033Z   23027.15544090  .00035477  00000-0  11936-2 0  9996,2 52180  97.3615 110.3404 0007622 313.4503  46.6104 15.30681007 45784,2022-033Z,52180,6851.916,94.076,479.004,468.559,1,2023/2/21
GENERATED VIA SPACETRACK.ORG API,18 SPCS,52180,SPACEBEE-134,PAYLOAD,U,22033Z,2023/1/27 17:51,93984,15.30722513,0.0007583,97.3615,110.9241,311.1507,48.9079,0,999,4585,0.0011293,0.00033596,0,3763180,0 SPACEBEE-134,1 52180U 22033Z   23027.74378581  .00033596  00000-0  11293-2 0  9997,2 52180  97.3615 110.9241 0007583 311.1507  48.9079 15.30722513 45856,2022-033Z,52180,6851.792,94.073,478.853,468.462,1,2023/2/22
GENERATED VIA SPACETRACK.ORG API,18 SPCS,52180,SPACEBEE-134,PAYLOAD,U,22033Z,2023/1/27 17:51,93984,15.30722513,0.0007583,97.3615,110.9241,311.1507,48.9079,0,999,4587,0.0011293,0.00033596,0,3763218,0 SPACEBEE-134,1 52180U 22033Z   23027.74378581  .00033596  00000-0  11293-2 0  9997,2 52180  97.3615 110.9241 0007583 311.1507  48.9079 15.30722513 45878,2022-033Z,52180,6851.792,94.073,478.853,468.462,1,2023/2/23
GENERATED VIA SPACETRACK.ORG API,18 SPCS,52180,SPACEBEE-134,PAYLOAD,U,22033Z,2023/1/28 11:06,571776,15.30768478,0.0007527,97.3611,111.6378,307.8963,52.1597,0,999,4598,0.0011024,0.00032837,0,3763924,0 SPACEBEE-134,1 52180U 22033Z   23028.46285384  .00032837  00000-0  11024-2 0  9994,2 52180  97.3611 111.6378 0007527 307.8963  52.1597 15.30768478 45983,2022-033Z,52180,6851.655,94.07,478.677,468.363,1,2023/2/24
GENERATED VIA SPACETRACK.ORG API,18 SPCS,52180,SPACEBEE-134,PAYLOAD,U,22033Z,2023/1/28 18:57,740448,15.30785921,0.0007544,97.3611,111.9621,306.5163,53.5383,0,999,4601,0.00094023,0.00027993,0,3764159,0 SPACEBEE-134,1 52180U 22033Z   23028.78969607  .00027993  00000-0  94023-3 0  9994,2 52180  97.3611 111.9621 0007544 306.5163  53.5383 15.30785921 46019,2022-033Z,52180,6851.603,94.069,478.637,468.299,1,2023/2/25
GENERATED VIA SPACETRACK.ORG API,18 SPCS,52180,SPACEBEE-134,PAYLOAD,U,22033Z,2023/1/28 18:57,740448,15.30785921,0.0007544,97.3611,111.9621,306.5163,53.5383,0,999,4603,0.00094023,0.00027993,0,3764201,0 SPACEBEE-134,1 52180U 22033Z   23028.78969607  .00027993  00000-0  94023-3 0  9994,2 52180  97.3611 111.9621 0007544 306.5163  53.5383 15.30785921 46031,2022-033Z,52180,6851.603,94.069,478.637,468.299,1,2023/2/26
GENERATED VIA SPACETRACK.ORG API,18 SPCS,52180,SPACEBEE-134,PAYLOAD,U,22033Z,2023/1/29 18:29,51040,15.30844166,0.0007522,97.3612,112.9349,302.6948,57.3567,0,999,4618,0.00089861,0.00026794,0,3765015,0 SPACEBEE-134,1 52180U 22033Z   23029.77019735  .00026794  00000-0  89861-3 0  9994,2 52180  97.3612 112.9349 0007522 302.6948  57.3567 15.30844166 46183,2022-033Z,52180,6851.429,94.066,478.448,468.141,1,2023/2/27
GENERATED VIA SPACETRACK.ORG API,18 SPCS,52180,SPACEBEE-134,PAYLOAD,U,22033Z,2023/1/30 5:27,827232,15.30868759,0.0007486,97.3613,113.3891,301.1088,58.9418,0,999,4623,0.00084064,0.00025074,0,3765385,0 SPACEBEE-134,1 52180U 22033Z   23030.22775263  .00025074  00000-0  84064-3 0  9991,2 52180  97.3613 113.3891 0007486 301.1088  58.9418 15.30868759 46231,2022-033Z,52180,6851.356,94.064,478.35,468.092,1,2023/2/28
GENERATED VIA SPACETRACK.ORG API,18 SPCS,52180,SPACEBEE-134,PAYLOAD,U,22033Z,2023/1/30 5:27,827232,15.30868759,0.0007486,97.3613,113.3891,301.1088,58.9418,0,999,4625,0.00084064,0.00025074,0,3765576,0 SPACEBEE-134,1 52180U 22033Z   23030.22775263  .00025074  00000-0  84064-3 0  9991,2 52180  97.3613 113.3891 0007486 301.1088  58.9418 15.30868759 46253,2022-033Z,52180,6851.356,94.064,478.35,468.092,1,2023/3/1
GENERATED VIA SPACETRACK.ORG API,18 SPCS,52180,SPACEBEE-134,PAYLOAD,U,22033Z,2023/1/31 11:16,4512,15.30934476,0.0007429,97.3611,114.621,295.7971,64.2504,0,999,4642,0.00091102,0.00027242,0,3766456,0 SPACEBEE-134,1 52180U 22033Z   23031.46965283  .00027242  00000-0  91102-3 0  9991,2 52180  97.3611 114.6210 0007429 295.7971  64.2504 15.30934476 46421,2022-033Z,52180,6851.16,94.06,478.115,467.935,1,2023/3/2
GENERATED VIA SPACETRACK.ORG API,18 SPCS,52180,SPACEBEE-134,PAYLOAD,U,22033Z,2023/1/31 11:16,4512,15.30934476,0.0007429,97.3611,114.621,295.7971,64.2504,0,999,4644,0.00091102,0.00027242,0,3766475,0 SPACEBEE-134,1 52180U 22033Z   23031.46965283  .00027242  00000-0  91102-3 0  9991,2 52180  97.3611 114.6210 0007429 295.7971  64.2504 15.30934476 46443,2022-033Z,52180,6851.16,94.06,478.115,467.935,1,2023/3/3
GENERATED VIA SPACETRACK.ORG API,18 SPCS,52180,SPACEBEE-134,PAYLOAD,U,22033Z,2023/2/1 4:31,853536,15.3098053,0.0007449,97.3613,115.3348,293.247,66.7986,0,999,4655,0.0010132,0.00030362,0,3767525,0 SPACEBEE-134,1 52180U 22033Z   23032.18862099  .00030362  00000-0  10132-2 0  9992,2 52180  97.3613 115.3348 0007449 293.2470  66.7986 15.30980530 46559,2022-033Z,52180,6851.023,94.057,477.991,467.784,1,2023/3/4
GENERATED VIA SPACETRACK.ORG API,18 SPCS,52180,SPACEBEE-134,PAYLOAD,U,22033Z,2023/2/1 4:31,853536,15.3098053,0.0007449,97.3613,115.3348,293.247,66.7986,0,999,4653,0.0010132,0.00030362,0,3767704,0 SPACEBEE-134,1 52180U 22033Z   23032.18862099  .00030362  00000-0  10132-2 0  9992,2 52180  97.3613 115.3348 0007449 293.2470  66.7986 15.30980530 46537,2022-033Z,52180,6851.023,94.057,477.991,467.784,1,2023/3/5
GENERATED VIA SPACETRACK.ORG API,18 SPCS,52180,SPACEBEE-134,PAYLOAD,U,22033Z,2023/2/2 4:03,484224,15.31045597,0.0007439,97.3616,116.308,289.8126,70.2313,0,999,4670,0.0012113,0.00036416,0,3768366,0 SPACEBEE-134,1 52180U 22033Z   23033.16899866  .00036416  00000-0  12113-2 0  9990,2 52180  97.3616 116.3080 0007439 289.8126  70.2313 15.31045597 46701,2022-033Z,52180,6850.828,94.053,477.79,467.597,1,2023/3/6
GENERATED VIA SPACETRACK.ORG API,18 SPCS,52180,SPACEBEE-134,PAYLOAD,U,22033Z,2023/2/2 22:52,677472,15.31088445,0.0007381,97.3615,117.0862,286.4142,73.6288,0,999,4680,0.00089508,0.00026891,0,3769222,0 SPACEBEE-134,1 52180U 22033Z   23033.95327173  .00026891  00000-0  89508-3 0  9993,2 52180  97.3615 117.0862 0007381 286.4142  73.6288 15.31088445 46801,2022-033Z,52180,6850.701,94.051,477.622,467.509,1,2023/3/7
GENERATED VIA SPACETRACK.ORG API,18 SPCS,52180,SPACEBEE-134,PAYLOAD,U,22033Z,2023/2/3 5:09,282528,15.31107517,0.0007386,97.3615,117.3456,285.4483,74.5942,0,999,4686,0.0010088,0.00030349,0,3770323,0 SPACEBEE-134,1 52180U 22033Z   23034.21469077  .00030349  00000-0  10088-2 0  9992,2 52180  97.3615 117.3456 0007386 285.4483  74.5942 15.31107517 46860,2022-033Z,52180,6850.644,94.05,477.569,467.449,1,2023/3/8
GENERATED VIA SPACETRACK.ORG API,18 SPCS,52180,SPACEBEE-134,PAYLOAD,U,22033Z,2023/2/3 16:07,256448,15.31134658,0.0007382,97.3614,117.7996,283.5878,76.4541,0,999,4693,0.00094416,0.00028416,0,3770748,0 SPACEBEE-134,1 52180U 22033Z   23034.67216732  .00028416  00000-0  94416-3 0  9990,2 52180  97.3614 117.7996 0007382 283.5878  76.4541 15.31134658 46935,2022-033Z,52180,6850.563,94.048,477.485,467.371,1,2023/3/9
GENERATED VIA SPACETRACK.ORG API,18 SPCS,52180,SPACEBEE-134,PAYLOAD,U,22033Z,2023/2/4 4:40,825824,15.31172818,0.0007415,97.3613,118.3185,281.492,78.5488,0,999,4699,0.0011555,0.00034865,0,3771447,0 SPACEBEE-134,1 52180U 22033Z   23035.19498641  .00034865  00000-0  11555-2 0  9996,2 52180  97.3613 118.3185 0007415 281.4920  78.5488 15.31172818 46992,2022-033Z,52180,6850.449,94.046,477.394,467.234,1,2023/3/10
